pattern1 pattern2 pattern3 unwanted-groups pattern4 random number of tokens pattern5 optional1 optional2 more unknown unwanted junk separated with white spaces optional3 optional4 etc

pattern = re.compile(r'(?:(METAR|SPECI)\s*)*(?P<ICAO>[\w]{4}\s)*'
                r'(?P<NIL>(NIL)\s)*(?P<UTC>[\d]{6}Z\s)*(?P<AUTOCOR>(AUTO|COR)*\s)*'
                r'(?P<WINDS>[\w]{5,6}G*[\d]{0,2}(MPS|KT|KMH)\s)\s*'
                r'.*?\s' #skip miscellaneous between winds and thermal data
                r'(?P<THERM>[\d]{2}/[\d]{2}\s)\s*(?P<PRESS>A[\d]{4}\s)\s*'
                r'(?:RMK\s)\s*(?P<AUTO>AO\d\s)*'
                r'(?P<PEAK>(PK\sWND\s[\d]{5,6}/[\d]{2,4}))*'
                r'(?P<SLP>SLP[\d]{3}\s)*'
                r'(?P<PRECIP>P[\d]{4}\s)*'          
                r'(?P<remains>.*)'
                )

example = "METAR KCSM 162353Z AUTO 07011KT 10SM TS SCT100 28/19 A3000 RMK AO2 PK WND 06042/2325 WSHFT 2248 LTG DSNT ALQDS PRESRR SLP135 T02780189 10389 20272 53007="

data = pattern.match(example)

